NORAD_CAT_ID,OBJECT_NAME,OBJECT_TYPE,EPOCH,MEAN_MOTION,ECCENTRICITY,INCLINATION,RA_OF_ASC_NODE,ARG_OF_PERICENTER,MEAN_ANOMALY,BSTAR,MEAN_MOTION_DOT,MEAN_MOTION_DDOT,TLE_LINE0,TLE_LINE1,TLE_LINE2,SEMIMAJOR_AXIS,PERIOD,APOGEE,PERIGEE,DECAYED
52000.0,STARLINK-3653,PAYLOAD,2024-03-24 21:16:59,15.08827999,0.0001644,53.2178,347.9025,117.9451,242.1708,0.00013964,1.934e-05,0.0,0 STARLINK-3653,1 52000U 22025AW  24084.88679799  .00001934  00000-0  13964-3 0  9992,2 52000  53.2178 347.9025 0001644 117.9451 242.1708 15.08827999114545,6917.917,95.438,540.919,538.645,0.0
52000.0,STARLINK-3653,PAYLOAD,2024-03-24 22:52:22,15.08829881,0.0001666,53.2183,347.6052,117.5103,242.6059,0.00015233,2.136e-05,0.0,0 STARLINK-3653,1 52000U 22025AW  24084.95303727  .00002136  00000-0  15233-3 0  9991,2 52000  53.2183 347.6052 0001666 117.5103 242.6059 15.08829881113020,6917.911,95.438,540.929,538.624,0.0
52000.0,STARLINK-3653,PAYLOAD,2024-03-25 22:43:10,15.08829909,0.0001206,53.2174,343.1465,79.7616,280.3512,6.6825e-05,7.76e-06,0.0,0 STARLINK-3653,1 52000U 22025AW  24085.94664695  .00000776  00000-0  66825-4 0  9997,2 52000  53.2174 343.1465 0001206  79.7616 280.3512 15.08829909113177,6917.911,95.438,540.611,538.942,0.0
52000.0,STARLINK-3653,PAYLOAD,2024-03-26 09:50:51,15.08837014,0.0001268,53.2185,341.0636,83.45,276.6637,0.00013922,1.928e-05,0.0,0 STARLINK-3653,1 52000U 22025AW  24086.41032268  .00001928  00000-0  13922-3 0  9994,2 52000  53.2185 341.0636 0001268  83.4500 276.6637 15.08837014114777,6917.89,95.438,540.632,538.877,0.0
52000.0,STARLINK-3653,PAYLOAD,2024-03-26 22:33:54,15.08870805,0.0001355,53.2174,338.6883,117.7967,242.3163,0.00036972,5.606e-05,0.0,0 STARLINK-3653,1 52000U 22025AW  24086.94021521  .00005606  00000-0  36972-3 0  9999,2 52000  53.2174 338.6883 0001355 117.7967 242.3163 15.08870805113325,6917.786,95.436,540.589,538.714,0.0
52000.0,STARLINK-3653,PAYLOAD,2024-03-27 00:09:17,15.08873274,0.0001183,53.2174,338.3914,89.9324,270.1804,0.00039324,5.982e-05,0.0,0 STARLINK-3653,1 52000U 22025AW  24087.00645356  .00005982  00000-0  39324-3 0  9996,2 52000  53.2174 338.3914 0001183  89.9324 270.1804 15.08873274114867,6917.779,95.435,540.462,538.825,0.0
52000.0,STARLINK-3653,PAYLOAD,2024-03-27 09:41:35,15.0888265,0.0001184,53.2172,336.6063,80.9802,279.1324,0.00040428,6.159e-05,0.0,0 STARLINK-3653,1 52000U 22025AW  24087.40388006  .00006159  00000-0  40428-3 0  9990,2 52000  53.2172 336.6063 0001184  80.9802 279.1324 15.08882650113395,6917.75,95.435,540.434,538.796,0.0
52000.0,STARLINK-3653,PAYLOAD,2024-03-27 22:24:43,15.08830985,0.0001395,53.2193,334.2266,83.5932,276.5219,-2.8689e-06,-3.34e-06,0.0,0 STARLINK-3653,1 52000U 22025AW  24087.93384189 -.00000334  00000-0 -28689-5 0  9994,2 52000  53.2193 334.2266 0001395  83.5932 276.5219 15.08830985113471,6917.908,95.438,540.738,538.808,0.0
52000.0,STARLINK-3653,PAYLOAD,2024-03-28 00:00:06,15.08831882,0.000132,53.2194,333.9291,83.7843,276.33,2.2812e-06,-2.52e-06,0.0,0 STARLINK-3653,1 52000U 22025AW  24088.00008099 -.00000252  00000-0  22812-5 0  9996,2 52000  53.2194 333.9291 0001320  83.7843 276.3300 15.08831882115015,6917.905,95.438,540.683,538.857,0.0
52000.0,STARLINK-3653,PAYLOAD,2024-03-28 09:32:24,15.08849397,0.0001417,53.2197,332.1428,82.5604,277.5549,9.3337e-05,1.198e-05,0.0,0 STARLINK-3653,1 52000U 22025AW  24088.39750673  .00001198  00000-0  93337-4 0  9998,2 52000  53.2197 332.1428 0001417  82.5604 277.5549 15.08849397115074,6917.852,95.437,540.697,538.736,0.0
52000.0,STARLINK-3653,PAYLOAD,2024-03-28 15:53:58,15.0882735,0.000123,53.2182,330.9557,86.4196,273.6937,-8.165e-05,-1.587e-05,0.0,0 STARLINK-3653,1 52000U 22025AW  24088.66248490 -.00001587  00000-0 -81650-4 0  9996,2 52000  53.2182 330.9557 0001230  86.4196 273.6937 15.08827350115117,6917.919,95.438,540.635,538.933,0.0
52000.0,STARLINK-3653,PAYLOAD,2024-03-29 15:44:44,15.08833572,0.0001839,53.2156,326.4975,89.2438,270.8765,0.00014724,2.056e-05,0.0,0 STARLINK-3653,1 52000U 22025AW  24089.65606883  .00002056  00000-0  14724-3 0  9997,2 52000  53.2156 326.4975 0001839  89.2438 270.8765 15.08833572115264,6917.9,95.438,541.037,538.493,0.0
52000.0,STARLINK-3653,PAYLOAD,2024-03-29 22:06:16,15.08836363,0.0001712,53.2163,325.3085,89.517,270.6018,0.0001564,2.202e-05,0.0,0 STARLINK-3653,1 52000U 22025AW  24089.92102807  .00002202  00000-0  15640-3 0  9995,2 52000  53.2163 325.3085 0001712  89.5170 270.6018 15.08836363113772,6917.892,95.438,540.941,538.572,0.0
52000.0,STARLINK-3653,PAYLOAD,2024-03-30 01:17:02,15.08846084,0.0001166,53.2174,324.711,90.3325,269.7801,6.9372e-05,8.17e-06,0.0,0 STARLINK-3653,1 52000U 22025AW  24090.05350508  .00000817  00000-0  69372-4 0  9996,2 52000  53.2174 324.7110 0001166  90.3325 269.7801 15.08846084115324,6917.862,95.437,540.533,538.92,0.0
52000.0,STARLINK-3653,PAYLOAD,2024-03-30 09:13:58,15.08849172,0.0001325,53.2187,323.2256,86.5399,273.5745,8.7828e-05,1.11e-05,0.0,0 STARLINK-3653,1 52000U 22025AW  24090.38470192  .00001110  00000-0  87828-4 0  9997,2 52000  53.2187 323.2256 0001325  86.5399 273.5745 15.08849172113844,6917.852,95.437,540.634,538.801,0.0
52000.0,STARLINK-3653,PAYLOAD,2024-03-30 20:21:41,15.08830014,0.0001638,53.2166,321.1455,91.4241,268.6939,1.0525e-05,-1.21e-06,0.0,0 STARLINK-3653,1 52000U 22025AW  24090.84839815 -.00000121  00000-0  10525-4 0  9991,2 52000  53.2166 321.1455 0001638  91.4241 268.6939 15.08830014115440,6917.911,95.438,540.909,538.643,0.0
52000.0,STARLINK-3653,PAYLOAD,2024-03-30 21:57:04,15.08827551,0.0001311,53.2161,320.8483,86.6904,273.4238,1.6645e-05,-2.3e-07,0.0,0 STARLINK-3653,1 52000U 22025AW  24090.91463948 -.00000023  00000-0  16645-4 0  9999,2 52000  53.2161 320.8483 0001311  86.6904 273.4238 15.08827551113921,6917.918,95.438,540.69,538.877,0.0
52000.0,STARLINK-3653,PAYLOAD,2024-03-31 01:07:50,15.08840579,0.0001175,53.2176,320.2512,88.5169,271.5958,8.2012e-05,1.018e-05,0.0,0 STARLINK-3653,1 52000U 22025AW  24091.04711095  .00001018  00000-0  82012-4 0  9998,2 52000  53.2176 320.2512 0001175  88.5169 271.5958 15.08840579115471,6917.879,95.438,540.556,538.931,0.0
52000.0,STARLINK-3653,PAYLOAD,2024-03-31 21:47:51,15.08838166,0.0001387,53.2194,316.3868,87.5537,272.5614,2.5059e-05,1.11e-06,0.0,0 STARLINK-3653,1 52000U 22025AW  24091.90823475  .00000111  00000-0  25059-4 0  9990,2 52000  53.2194 316.3868 0001387  87.5537 272.5614 15.08838166114078,6917.886,95.438,540.711,538.791,0.0
52000.0,STARLINK-3653,PAYLOAD,2024-04-01 07:20:09,15.08847298,0.0001272,53.2187,314.6028,83.263,276.8507,6.2038e-05,7e-06,0.0,0 STARLINK-3653,1 52000U 22025AW  24092.30566742  .00000700  00000-0  62038-4 0  9998,2 52000  53.2187 314.6028 0001272  83.2630 276.8507 15.08847298115669,6917.858,95.437,540.603,538.843,0.0
52000.0,STARLINK-3653,PAYLOAD,2024-04-01 15:17:06,15.08826171,0.0001333,53.2183,313.1164,95.7671,264.3473,6.4545e-05,7.39e-06,0.0,0 STARLINK-3653,1 52000U 22025AW  24092.63688431  .00000739  00000-0  64545-4 0  9991,2 52000  53.2183 313.1164 0001333  95.7671 264.3473 15.08826171114188,6917.923,95.438,540.71,538.865,0.0
52000.0,STARLINK-3653,PAYLOAD,2024-04-01 21:38:39,15.08828785,0.0001175,53.2178,311.9283,92.455,267.6576,7.9801e-05,9.82e-06,0.0,0 STARLINK-3653,1 52000U 22025AW  24092.90184098  .00000982  00000-0  79801-4 0  9992,2 52000  53.2178 311.9283 0001175  92.4550 267.6576 15.08828785115751,6917.915,95.438,540.593,538.967,0.0
52000.0,STARLINK-3653,PAYLOAD,2024-04-02 07:10:57,15.08838111,0.0001321,53.2185,310.1443,96.863,263.2512,0.00012347,1.678e-05,0.0,0 STARLINK-3653,1 52000U 22025AW  24093.29927570  .00001678  00000-0  12347-3 0  9999,2 52000  53.2185 310.1443 0001321  96.8630 263.2512 15.08838111115811,6917.886,95.438,540.665,538.837,0.0
52000.0,STARLINK-3653,PAYLOAD,2024-04-02 21:29:26,15.08833439,0.0001521,53.2197,307.4693,99.9896,260.1268,1.0617e-05,-1.19e-06,0.0,0 STARLINK-3653,1 52000U 22025AW  24093.89544413 -.00000119  00000-0  10617-4 0  9995,2 52000  53.2197 307.4693 0001521  99.9896 260.1268 15.08833439115902,6917.9,95.438,540.818,538.713,0.0
52000.0,STARLINK-3653,PAYLOAD,2024-04-03 07:01:44,15.08838736,0.000151,53.2194,305.6839,93.9172,266.1993,1.9549e-05,2.3e-07,0.0,0 STARLINK-3653,1 52000U 22025AW  24094.29288155  .00000023  00000-0  19549-4 0  9994,2 52000  53.2194 305.6839 0001510  93.9172 266.1993 15.08838736114433,6917.884,95.438,540.794,538.705,0.0
52000.0,STARLINK-3653,PAYLOAD,2024-04-03 19:44:50,15.08836146,0.0001347,53.2182,303.304,93.9615,266.1531,6.1757e-05,6.95e-06,0.0,0 STARLINK-3653,1 52000U 22025AW  24094.82280302  .00000695  00000-0  61757-4 0  9992,2 52000  53.2182 303.3040 0001347  93.9615 266.1531 15.08836146114519,6917.892,95.438,540.689,538.825,0.0
52000.0,STARLINK-3653,PAYLOAD,2024-04-03 22:55:36,15.08837625,0.0001363,53.2182,302.7093,94.6793,265.4355,7.3501e-05,8.82e-06,0.0,0 STARLINK-3653,1 52000U 22025AW  24094.95528211  .00000882  00000-0  73501-4 0  9998,2 52000  53.2182 302.7093 0001363  94.6793 265.4355 15.08837625116064,6917.888,95.438,540.696,538.81,0.0
52000.0,STARLINK-3653,PAYLOAD,2024-04-04 06:52:31,15.08846862,0.0001264,53.2174,301.2206,84.6979,275.4158,8.0879e-05,1e-05,0.0,0 STARLINK-3653,1 52000U 22025AW  24095.28647550  .00001000  00000-0  80879-4 0  9992,2 52000  53.2174 301.2206 0001264  84.6979 275.4158 15.08846862116111,6917.859,95.437,540.599,538.85,0.0
52000.0,STARLINK-3653,PAYLOAD,2024-04-04 19:35:37,15.08828536,0.0001592,53.2152,298.8416,91.8476,268.2699,0.00025424,3.759e-05,0.0,0 STARLINK-3653,1 52000U 22025AW  24095.81640419  .00003759  00000-0  25424-3 0  9995,2 52000  53.2152 298.8416 0001592  91.8476 268.2699 15.08828536116193,6917.915,95.438,540.882,538.679,0.0
52000.0,STARLINK-3653,PAYLOAD,2024-04-04 21:11:00,15.088403,0.0001251,53.2166,298.545,85.2908,274.8227,8.5596e-05,1.075e-05,0.0,0 STARLINK-3653,1 52000U 22025AW  24095.88263952  .00001075  00000-0  85596-4 0  9991,2 52000  53.2166 298.5450 0001251  85.2908 274.8227 15.08840300114676,6917.879,95.438,540.61,538.879,0.0
